OBJECT_NAME,OBJECT_ID,EPOCH,MEAN_MOTION,ECCENTRICITY,INCLINATION,RA_OF_ASC_NODE,ARG_OF_PERICENTER,MEAN_ANOMALY,EPHEMERIS_TYPE,CLASSIFICATION_TYPE,NORAD_CAT_ID,ELEMENT_SET_NO,REV_AT_EPOCH,BSTAR,MEAN_MOTION_DOT,MEAN_MOTION_DDOT
STARLINK-38067,2026-150J,2026-07-18T12:31:14.098080,15.75265955,.00013728,97.2837,38.0285,114.2311,245.9098,0,U,69747,999,384,.1386313E-2,.212574E-2,0
STARLINK-37988,2026-150K,2026-07-18T12:28:41.667744,15.75197343,.0001252,97.2841,38.0306,92.2959,267.8449,0,U,69748,999,384,.85655645E-3,.129628E-2,0
STARLINK-37987,2026-150L,2026-07-18T12:22:35.767200,15.75249507,.0001104,97.2846,38.0370,110.4056,249.7328,0,U,69749,999,384,.1150507E-2,.175498E-2,0
STARLINK-38037,2026-150M,2026-07-18T11:46:36.159456,15.80910604,.00010922,97.2854,38.0728,85.8663,274.2730,0,U,69750,999,384,.1216286E-2,.240405E-2,0
STARLINK-38049,2026-150N,2026-07-18T11:45:06.258528,15.80932844,.00009488,97.2857,38.0737,93.2446,266.8931,0,U,69751,999,384,.71538347E-3,.139848E-2,0
STARLINK-38029,2026-150P,2026-07-18T11:58:42.648672,15.75249895,.00015858,97.2851,38.0612,111.7934,248.3500,0,U,69752,999,384,.99608327E-3,.1515E-2,0
STARLINK-37965,2026-150Q,2026-07-18T12:08:21.977088,15.75218262,.00010298,97.2843,38.0510,107.3556,252.7822,0,U,69753,999,384,.10256137E-2,.155859E-2,0
STARLINK-38048,2026-150R,2026-07-18T11:36:19.129536,15.80886628,.00014114,97.2842,38.0819,93.6026,266.5404,0,U,69754,999,384,.8802076E-3,.172387E-2,0
STARLINK-38006,2026-150S,2026-07-18T11:55:09.096384,15.75218994,.00008517,97.2844,38.0647,108.2001,251.9357,0,U,69755,999,384,.75977476E-3,.114874E-2,0
STARLINK-38036,2026-150T,2026-07-18T14:00:01.999872,15.75232215,.00013805,97.2855,38.1733,84.0803,85.4703,0,U,69756,999,384,-.68988802E-3,-.101999E-2,0
STARLINK-38058,2026-150U,2026-07-18T14:00:01.999872,15.77097349,.00015578,97.2852,38.1973,95.0931,131.0501,0,U,69757,999,384,-.14444194E-1,-.2022333E-1,0
STARLINK-38066,2026-150V,2026-07-18T14:00:01.999872,15.81196252,.00014983,97.2844,38.2004,100.8181,132.3967,0,U,69758,999,384,-.63841022E-2,-.1117085E-1,0
STARLINK-38035,2026-150W,2026-07-16T12:23:54.049920,15.80943955,.0001208,97.2826,36.0135,127.8766,232.2612,0,U,69759,999,353,.16439E-2,.328828E-2,0
STARLINK-38056,2026-150X,2026-07-18T12:55:50.465856,15.80944146,.00013575,97.2841,38.1609,127.6986,232.4406,0,U,69760,999,385,.15196412E-2,.303051E-2,0
STARLINK-38069,2026-150Y,2026-07-18T14:00:01.999872,15.75609140,.00013524,97.2854,38.2132,67.2336,196.1154,0,U,69761,999,384,-.47337257E-2,-.665841E-2,0
STARLINK-38019,2026-150Z,2026-07-18T13:25:37.253280,15.75195346,.00006936,97.2842,38.1317,83.8569,276.2776,0,U,69762,999,385,.59731796E-3,.89926E-3,0
KUIPER-00258,2026-151A,2026-07-18T09:24:29.521440,15.34753877,.0011375,51.8670,165.1525,179.1617,180.9389,0,U,69763,999,250,.10179759E-3,.3104E-4,0
KUIPER-00526,2026-151B,2026-07-18T12:03:23.856480,15.37370735,.00057291,51.8776,164.4035,151.0922,209.0383,0,U,69764,999,252,.3237484E-3,.11675E-3,0
KUIPER-00558,2026-151C,2026-07-18T14:00:01.999872,15.33577172,.00070085,51.8781,164.1161,165.6345,230.1805,0,U,69765,999,314,-.6912392E-3,-.23102E-3,0
KUIPER-00569,2026-151D,2026-07-18T08:54:05.862816,15.35712473,.00158509,51.8790,165.0212,144.6866,215.5173,0,U,69766,999,250,-.30437325E-1,-.984859E-2,0
KUIPER-00589,2026-151E,2026-07-18T12:02:08.341152,15.37391829,.00052297,51.8762,164.3983,151.0953,209.0325,0,U,69767,999,252,.34462667E-3,.12463E-3,0
KUIPER-00598,2026-151F,2026-07-18T14:00:01.999872,15.34401385,.00086349,51.8642,164.2299,176.3522,159.7873,0,U,69768,999,308,-.96898629E-3,-.33053E-3,0
KUIPER-00604,2026-151G,2026-07-18T14:56:32.333280,15.38292222,.00026799,51.8808,163.7088,116.3646,243.7617,0,U,69769,999,254,.31309276E-3,.11626E-3,0
KUIPER-00609,2026-151H,2026-07-18T14:50:13.191936,15.38688357,.00012181,51.8809,163.6801,57.0114,303.0990,0,U,69770,999,254,.28665668E-3,.10751E-3,0
KUIPER-00611,2026-151J,2026-07-18T14:53:17.232576,15.38499762,.00016367,51.8813,163.6900,109.7569,250.3595,0,U,69771,999,254,.22094536E-3,.8141E-4,0
KUIPER-00612,2026-151K,2026-07-18T10:20:22.454880,15.37989792,.00037339,51.8802,164.6733,127.3519,232.7808,0,U,69772,999,251,.302671E-3,.11113E-3,0
KUIPER-00614,2026-151L,2026-07-18T14:57:51.846336,15.38202208,.00025653,51.8812,163.7136,130.3129,229.8083,0,U,69773,999,254,.3284082E-3,.12178E-3,0
KUIPER-00615,2026-151M,2026-07-18T15:11:59.678304,15.37279796,.0005889,51.8783,163.7806,159.4149,200.7077,0,U,69774,999,254,.33421654E-3,.1203E-3,0
KUIPER-00616,2026-151N,2026-07-18T07:07:26.640768,15.38429645,.00029597,51.8793,165.2779,134.0384,226.0848,0,U,69775,999,249,.58719962E-3,.22283E-3,0
KUIPER-00617,2026-151P,2026-07-18T11:55:59.611872,15.37834341,.00038245,51.8807,164.3680,146.0992,214.0240,0,U,69776,999,252,.35785543E-3,.13147E-3,0
