STARLINK-38067          
1 69747U 26150J   26199.52169095  .00212574  00000+0  13863-2 0  9994
2 69747  97.2837  38.0285 0001372 114.2311 245.9098 15.75265955  3845
STARLINK-37988          
1 69748U 26150K   26199.51992671  .00129628  00000+0  85656-3 0  9995
2 69748  97.2841  38.0306 0001252  92.2959 267.8449 15.75197343  3843
STARLINK-37987          
1 69749U 26150L   26199.51569175  .00175498  00000+0  11505-2 0  9992
2 69749  97.2846  38.0370 0001104 110.4056 249.7328 15.75249507  3842
STARLINK-38037          
1 69750U 26150M   26199.49069629  .00240405  00000+0  12163-2 0  9992
2 69750  97.2854  38.0728 0001092  85.8663 274.2730 15.80910604  3844
STARLINK-38049          
1 69751U 26150N   26199.48965577  .00139848  00000+0  71538-3 0  9999
2 69751  97.2857  38.0737 0000948  93.2446 266.8931 15.80932844  3849
STARLINK-38029          
1 69752U 26150P   26199.49910473  .00151500  00000+0  99608-3 0  9993
2 69752  97.2851  38.0612 0001585 111.7934 248.3500 15.75249895  3840
STARLINK-37965          
1 69753U 26150Q   26199.50580992  .00155859  00000+0  10256-2 0  9997
2 69753  97.2843  38.0510 0001029 107.3556 252.7822 15.75218262  3843
STARLINK-38048          
1 69754U 26150R   26199.48355474  .00172387  00000+0  88021-3 0  9991
2 69754  97.2842  38.0819 0001411  93.6026 266.5404 15.80886628  3841
STARLINK-38006          
1 69755U 26150S   26199.49663306  .00114874  00000+0  75977-3 0  9992
2 69755  97.2844  38.0647 0000851 108.2001 251.9357 15.75218994  3840
STARLINK-38036          
1 69756U 26150T   26199.58335648 -.00101999  00000+0 -68989-3 0  9999
2 69756  97.2855  38.1733 0001380  84.0803  85.4703 15.75232215  3846
STARLINK-38058          
1 69757U 26150U   26199.58335648 -.02022333  00000+0 -14444-1 0  9991
2 69757  97.2852  38.1973 0001557  95.0931 131.0501 15.77097349  3843
STARLINK-38066          
1 69758U 26150V   26199.58335648 -.01117085  00000+0 -63841-2 0  9996
2 69758  97.2844  38.2004 0001498 100.8181 132.3967 15.81196252  3845
STARLINK-38035          
1 69759U 26150W   26197.51659780  .00328828  00000+0  16439-2 0  9991
2 69759  97.2826  36.0135 0001208 127.8766 232.2612 15.80943955  3536
STARLINK-38056          
1 69760U 26150X   26199.53877854  .00303051  00000+0  15196-2 0  9991
2 69760  97.2841  38.1609 0001357 127.6986 232.4406 15.80944146  3852
STARLINK-38069          
1 69761U 26150Y   26199.58335648 -.00665841  00000+0 -47337-2 0  9999
2 69761  97.2854  38.2132 0001352  67.2336 196.1154 15.75609140  3843
STARLINK-38019          
1 69762U 26150Z   26199.55945895  .00089926  00000+0  59732-3 0  9993
2 69762  97.2842  38.1317 0000693  83.8569 276.2776 15.75195346  3853
KUIPER-00258            
1 69763U 26151A   26199.39200835  .00003104  00000+0  10180-3 0  9993
2 69763  51.8670 165.1525 0011375 179.1617 180.9389 15.34753877  2509
KUIPER-00526            
1 69764U 26151B   26199.50235945  .00011675  00000+0  32375-3 0  9999
2 69764  51.8776 164.4035 0005729 151.0922 209.0383 15.37370735  2529
KUIPER-00558            
1 69765U 26151C   26199.58335648 -.00023102  00000+0 -69124-3 0  9991
2 69765  51.8781 164.1161 0007008 165.6345 230.1805 15.33577172  3148
KUIPER-00569            
1 69766U 26151D   26199.37090119 -.00984859  00000+0 -30437-1 0  9998
2 69766  51.8790 165.0212 0015850 144.6866 215.5173 15.35712473  2506
KUIPER-00589            
1 69767U 26151E   26199.50148543  .00012463  00000+0  34463-3 0  9995
2 69767  51.8762 164.3983 0005229 151.0953 209.0325 15.37391829  2520
KUIPER-00598            
1 69768U 26151F   26199.58335648 -.00033053  00000+0 -96899-3 0  9999
2 69768  51.8642 164.2299 0008634 176.3522 159.7873 15.34401385  3089
KUIPER-00604            
1 69769U 26151G   26199.62259645  .00011626  00000+0  31309-3 0  9992
2 69769  51.8808 163.7088 0002679 116.3646 243.7617 15.38292222  2540
KUIPER-00609            
1 69770U 26151H   26199.61820824  .00010751  00000+0  28666-3 0  9996
2 69770  51.8809 163.6801 0001218  57.0114 303.0990 15.38688357  2546
KUIPER-00611            
1 69771U 26151J   26199.62033834  .00008141  00000+0  22095-3 0  9995
2 69771  51.8813 163.6900 0001636 109.7569 250.3595 15.38499762  2540
KUIPER-00612            
1 69772U 26151K   26199.43081545  .00011113  00000+0  30267-3 0  9990
2 69772  51.8802 164.6733 0003733 127.3519 232.7808 15.37989792  2519
KUIPER-00614            
1 69773U 26151L   26199.62351674  .00012178  00000+0  32841-3 0  9997
2 69773  51.8812 163.7136 0002565 130.3129 229.8083 15.38202208  2547
KUIPER-00615            
1 69774U 26151M   26199.63332961  .00012030  00000+0  33422-3 0  9990
2 69774  51.8783 163.7806 0005889 159.4149 200.7077 15.37279796  2541
KUIPER-00616            
1 69775U 26151N   26199.29683612  .00022283  00000+0  58720-3 0  9994
2 69775  51.8793 165.2779 0002959 134.0384 226.0848 15.38429645  2496
KUIPER-00617            
1 69776U 26151P   26199.49721773  .00013147  00000+0  35786-3 0  9994
2 69776  51.8807 164.3680 0003824 146.0992 214.0240 15.37834341  2523
